[ {"CCSDS_OMM_VERS": "3.0", "COMMENT": "GENERATED VIA SPACE-TRACK.ORG API", "CREATION_DATE": "2019-12-26T21:20:14", "ORIGINATOR": "18 SPCS", "OBJECT_NAME": "OBJECT F", "OBJECT_ID": "2019-092F", "CENTER_NAME": "EARTH", "REF_FRAME": "TEME", "TIME_SYSTEM": "UTC", "MEAN_ELEMENT_THEORY": "SGP4", "EPOCH": "2019-12-26T13:36:29.778048", "MEAN_MOTION": "15.15166428", "ECCENTRICITY": "0.00132060", "INCLINATION": "97.4615", "RA_OF_ASC_NODE": "181.8627", "ARG_OF_PERICENTER": "235.9321", "MEAN_ANOMALY": "124.0699", "EPHEMERIS_TYPE": "0", "CLASSIFICATION_TYPE": "U", "NORAD_CAT_ID": "44878", "ELEMENT_SET_NO": "999", "REV_AT_EPOCH": "120", "BSTAR": "0.00000000000000", "MEAN_MOTION_DOT": "-0.00000066", "MEAN_MOTION_DDOT": "0.0000000000000", "SEMIMAJOR_AXIS": "6898.610", "PERIOD": "95.039", "APOAPSIS": "529.585", "PERIAPSIS": "511.365", "OBJECT_TYPE": "TBA", "RCS_SIZE": "SMALL", "COUNTRY_CODE": "TBD", "LAUNCH_DATE": "2019-12-18", "SITE": "FRGUI", "DECAY_DATE": null, "FILE": "2673530", "GP_ID": "145560373", "TLE_LINE0": "0 OBJECT F", "TLE_LINE1": "1 44878U 19092F   19360.56701132 -.00000066  00000-0  00000+0 0  9998", "TLE_LINE2": "2 44878  97.4615 181.8627 0013206 235.9321 124.0699 15.15166428  1208"}, {"CCSDS_OMM_VERS": "3.0", "COMMENT": "GENERATED VIA SPACE-TRACK.ORG API", "CREATION_DATE": "2019-12-28T03:53:41", "ORIGINATOR": "18 SPCS", "OBJECT_NAME": "OBJECT F", "OBJECT_ID": "2019-092F", "CENTER_NAME": "EARTH", "REF_FRAME": "TEME", "TIME_SYSTEM": "UTC", "MEAN_ELEMENT_THEORY": "SGP4", "EPOCH": "2019-12-27T13:22:59.174976", "MEAN_MOTION": "15.15168648", "ECCENTRICITY": "0.00126910", "INCLINATION": "97.4594", "RA_OF_ASC_NODE": "182.8360", "ARG_OF_PERICENTER": "233.9210", "MEAN_ANOMALY": "126.0902", "EPHEMERIS_TYPE": "0", "CLASSIFICATION_TYPE": "U", "NORAD_CAT_ID": "44878", "ELEMENT_SET_NO": "999", "REV_AT_EPOCH": "135", "BSTAR": "0.00000000000000", "MEAN_MOTION_DOT": "-0.00000066", "MEAN_MOTION_DDOT": "0.0000000000000", "SEMIMAJOR_AXIS": "6898.603", "PERIOD": "95.038", "APOAPSIS": "529.223", "PERIAPSIS": "511.713", "OBJECT_TYPE": "TBA", "RCS_SIZE": "SMALL", "COUNTRY_CODE": "TBD", "LAUNCH_DATE": "2019-12-18", "SITE": "FRGUI", "DECAY_DATE": null, "FILE": "2674323", "GP_ID": "145616425", "TLE_LINE0": "0 OBJECT F", "TLE_LINE1": "1 44878U 19092F   19361.55762934 -.00000066 +00000-0 +00000-0 0  9996", "TLE_LINE2": "2 44878 097.4594 182.8360 0012691 233.9210 126.0902 15.15168648001352"}, {"CCSDS_OMM_VERS": "3.0", "COMMENT": "GENERATED VIA SPACE-TRACK.ORG API", "CREATION_DATE": "2019-12-28T06:20:16", "ORIGINATOR": "18 SPCS", "OBJECT_NAME": "OBJECT F", "OBJECT_ID": "2019-092F", "CENTER_NAME": "EARTH", "REF_FRAME": "TEME", "TIME_SYSTEM": "UTC", "MEAN_ELEMENT_THEORY": "SGP4", "EPOCH": "2019-12-28T00:28:40.853856", "MEAN_MOTION": "15.15168889", "ECCENTRICITY": "0.00127710", "INCLINATION": "97.4597", "RA_OF_ASC_NODE": "183.2897", "ARG_OF_PERICENTER": "231.7713", "MEAN_ANOMALY": "128.2400", "EPHEMERIS_TYPE": "0", "CLASSIFICATION_TYPE": "U", "NORAD_CAT_ID": "44878", "ELEMENT_SET_NO": "999", "REV_AT_EPOCH": "142", "BSTAR": "0.00000000000000", "MEAN_MOTION_DOT": "-0.00000066", "MEAN_MOTION_DDOT": "0.0000000000000", "SEMIMAJOR_AXIS": "6898.602", "PERIOD": "95.038", "APOAPSIS": "529.278", "PERIAPSIS": "511.657", "OBJECT_TYPE": "TBA", "RCS_SIZE": "SMALL", "COUNTRY_CODE": "TBD", "LAUNCH_DATE": "2019-12-18", "SITE": "FRGUI", "DECAY_DATE": null, "FILE": "2674345", "GP_ID": "145616802", "TLE_LINE0": "0 OBJECT F", "TLE_LINE1": "1 44878U 19092F   19362.01991729 -.00000066  00000-0  00000+0 0  9993", "TLE_LINE2": "2 44878  97.4597 183.2897 0012771 231.7713 128.2400 15.15168889  1420"}, {"CCSDS_OMM_VERS": "3.0", "COMMENT": "GENERATED VIA SPACE-TRACK.ORG API", "CREATION_DATE": "2019-12-29T04:33:10", "ORIGINATOR": "18 SPCS", "OBJECT_NAME": "OBJECT F", "OBJECT_ID": "2019-092F", "CENTER_NAME": "EARTH", "REF_FRAME": "TEME", "TIME_SYSTEM": "UTC", "MEAN_ELEMENT_THEORY": "SGP4", "EPOCH": "2019-12-28T13:09:28.529568", "MEAN_MOTION": "15.15169981", "ECCENTRICITY": "0.00126660", "INCLINATION": "97.4579", "RA_OF_ASC_NODE": "183.8090", "ARG_OF_PERICENTER": "230.2973", "MEAN_ANOMALY": "129.7222", "EPHEMERIS_TYPE": "0", "CLASSIFICATION_TYPE": "U", "NORAD_CAT_ID": "44878", "ELEMENT_SET_NO": "999", "REV_AT_EPOCH": "150", "BSTAR": "0.00000000000000", "MEAN_MOTION_DOT": "-0.00000066", "MEAN_MOTION_DDOT": "0.0000000000000", "SEMIMAJOR_AXIS": "6898.599", "PERIOD": "95.038", "APOAPSIS": "529.202", "PERIAPSIS": "511.726", "OBJECT_TYPE": "TBA", "RCS_SIZE": "SMALL", "COUNTRY_CODE": "TBD", "LAUNCH_DATE": "2019-12-18", "SITE": "FRGUI", "DECAY_DATE": null, "FILE": "2674900", "GP_ID": "145687663", "TLE_LINE0": "0 OBJECT F", "TLE_LINE1": "1 44878U 19092F   19362.54824687 -.00000066 +00000-0 +00000-0 0  9990", "TLE_LINE2": "2 44878 097.4579 183.8090 0012666 230.2973 129.7222 15.15169981001507"}, {"CCSDS_OMM_VERS": "3.0", "COMMENT": "GENERATED VIA SPACE-TRACK.ORG API", "CREATION_DATE": "2019-12-29T06:20:15", "ORIGINATOR": "18 SPCS", "OBJECT_NAME": "OBJECT F", "OBJECT_ID": "2019-092F", "CENTER_NAME": "EARTH", "REF_FRAME": "TEME", "TIME_SYSTEM": "UTC", "MEAN_ELEMENT_THEORY": "SGP4", "EPOCH": "2019-12-29T01:50:16.101600", "MEAN_MOTION": "15.15171002", "ECCENTRICITY": "0.00130060", "INCLINATION": "97.4580", "RA_OF_ASC_NODE": "184.3275", "ARG_OF_PERICENTER": "227.7381", "MEAN_ANOMALY": "132.2851", "EPHEMERIS_TYPE": "0", "CLASSIFICATION_TYPE": "U", "NORAD_CAT_ID": "44878", "ELEMENT_SET_NO": "999", "REV_AT_EPOCH": "158", "BSTAR": "0.00000000000000", "MEAN_MOTION_DOT": "-0.00000066", "MEAN_MOTION_DDOT": "0.0000000000000", "SEMIMAJOR_AXIS": "6898.596", "PERIOD": "95.038", "APOAPSIS": "529.433", "PERIAPSIS": "511.489", "OBJECT_TYPE": "TBA", "RCS_SIZE": "SMALL", "COUNTRY_CODE": "TBD", "LAUNCH_DATE": "2019-12-18", "SITE": "FRGUI", "DECAY_DATE": null, "FILE": "2674911", "GP_ID": "145687929", "TLE_LINE0": "0 OBJECT F", "TLE_LINE1": "1 44878U 19092F   19363.07657525 -.00000066  00000-0  00000+0 0  9993", "TLE_LINE2": "2 44878  97.4580 184.3275 0013006 227.7381 132.2851 15.15171002  1585"}, {"CCSDS_OMM_VERS": "3.0", "COMMENT": "GENERATED VIA SPACE-TRACK.ORG API", "CREATION_DATE": "2019-12-30T03:58:12", "ORIGINATOR": "18 SPCS", "OBJECT_NAME": "OBJECT F", "OBJECT_ID": "2019-092F", "CENTER_NAME": "EARTH", "REF_FRAME": "TEME", "TIME_SYSTEM": "UTC", "MEAN_ELEMENT_THEORY": "SGP4", "EPOCH": "2019-12-29T14:31:03.550944", "MEAN_MOTION": "15.15171750", "ECCENTRICITY": "0.00129780", "INCLINATION": "97.4581", "RA_OF_ASC_NODE": "184.8462", "ARG_OF_PERICENTER": "225.5596", "MEAN_ANOMALY": "134.4616", "EPHEMERIS_TYPE": "0", "CLASSIFICATION_TYPE": "U", "NORAD_CAT_ID": "44878", "ELEMENT_SET_NO": "999", "REV_AT_EPOCH": "166", "BSTAR": "0.00000000000000", "MEAN_MOTION_DOT": "-0.00000066", "MEAN_MOTION_DDOT": "0.0000000000000", "SEMIMAJOR_AXIS": "6898.594", "PERIOD": "95.038", "APOAPSIS": "529.412", "PERIAPSIS": "511.506", "OBJECT_TYPE": "TBA", "RCS_SIZE": "SMALL", "COUNTRY_CODE": "TBD", "LAUNCH_DATE": "2019-12-18", "SITE": "FRGUI", "DECAY_DATE": null, "FILE": "2675404", "GP_ID": "145757699", "TLE_LINE0": "0 OBJECT F", "TLE_LINE1": "1 44878U 19092F   19363.60490221 -.00000066 +00000-0 +00000-0 0  9991", "TLE_LINE2": "2 44878 097.4581 184.8462 0012978 225.5596 134.4616 15.15171750001662"}, {"CCSDS_OMM_VERS": "3.0", "COMMENT": "GENERATED VIA SPACE-TRACK.ORG API", "CREATION_DATE": "2019-12-30T14:20:18", "ORIGINATOR": "18 SPCS", "OBJECT_NAME": "OBJECT F", "OBJECT_ID": "2019-092F", "CENTER_NAME": "EARTH", "REF_FRAME": "TEME", "TIME_SYSTEM": "UTC", "MEAN_ELEMENT_THEORY": "SGP4", "EPOCH": "2019-12-30T07:57:08.975232", "MEAN_MOTION": "15.15172004", "ECCENTRICITY": "0.00129820", "INCLINATION": "97.4592", "RA_OF_ASC_NODE": "185.5602", "ARG_OF_PERICENTER": "222.9990", "MEAN_ANOMALY": "137.0233", "EPHEMERIS_TYPE": "0", "CLASSIFICATION_TYPE": "U", "NORAD_CAT_ID": "44878", "ELEMENT_SET_NO": "999", "REV_AT_EPOCH": "177", "BSTAR": "0.00000000000000", "MEAN_MOTION_DOT": "-0.00000066", "MEAN_MOTION_DDOT": "0.0000000000000", "SEMIMAJOR_AXIS": "6898.593", "PERIOD": "95.038", "APOAPSIS": "529.414", "PERIAPSIS": "511.502", "OBJECT_TYPE": "TBA", "RCS_SIZE": "SMALL", "COUNTRY_CODE": "TBD", "LAUNCH_DATE": "2019-12-18", "SITE": "FRGUI", "DECAY_DATE": null, "FILE": "2675553", "GP_ID": "145780247", "TLE_LINE0": "0 OBJECT F", "TLE_LINE1": "1 44878U 19092F   19364.33135388 -.00000066  00000-0  00000+0 0  9991", "TLE_LINE2": "2 44878  97.4592 185.5602 0012982 222.9990 137.0233 15.15172004  1771"}, {"CCSDS_OMM_VERS": "3.0", "COMMENT": "GENERATED VIA SPACE-TRACK.ORG API", "CREATION_DATE": "2019-12-31T04:05:06", "ORIGINATOR": "18 SPCS", "OBJECT_NAME": "OBJECT F", "OBJECT_ID": "2019-092F", "CENTER_NAME": "EARTH", "REF_FRAME": "TEME", "TIME_SYSTEM": "UTC", "MEAN_ELEMENT_THEORY": "SGP4", "EPOCH": "2019-12-30T22:13:02.493120", "MEAN_MOTION": "15.15172737", "ECCENTRICITY": "0.00130810", "INCLINATION": "97.4593", "RA_OF_ASC_NODE": "186.1441", "ARG_OF_PERICENTER": "219.6776", "MEAN_ANOMALY": "140.3538", "EPHEMERIS_TYPE": "0", "CLASSIFICATION_TYPE": "U", "NORAD_CAT_ID": "44878", "ELEMENT_SET_NO": "999", "REV_AT_EPOCH": "186", "BSTAR": "0.00000000000000", "MEAN_MOTION_DOT": "-0.00000066", "MEAN_MOTION_DDOT": "0.0000000000000", "SEMIMAJOR_AXIS": "6898.591", "PERIOD": "95.038", "APOAPSIS": "529.480", "PERIAPSIS": "511.432", "OBJECT_TYPE": "TBA", "RCS_SIZE": "SMALL", "COUNTRY_CODE": "TBD", "LAUNCH_DATE": "2019-12-18", "SITE": "FRGUI", "DECAY_DATE": null, "FILE": "2676005", "GP_ID": "145848518", "TLE_LINE0": "0 OBJECT F", "TLE_LINE1": "1 44878U 19092F   19364.92572330 -.00000066 +00000-0 +00000-0 0  9999", "TLE_LINE2": "2 44878 097.4593 186.1441 0013081 219.6776 140.3538 15.15172737001864"}]